#dP2021  1 24  0  0  0.00000000      97 __u+U IGS14 FIT  IAC
## 2142      0.00000000   900.00000000 59238 0.0000000000000
+  125   C01C02C03C04C05C06C07C08C09C10C11C12C13C14C16C19C20
+        C21C22C23C24C25C26C27C28C29C30C32C33C34C35C36C37C38
+        C39C40C41C42C43C44C45C46C59C60E01E02E03E04E05E07E08
+        E09E11E12E13E14E15E18E19E21E24E25E26E27E30E31E33E36
+        G01G02G03G04G05G06G07G08G09G10G11G12G13G14G15G16G17
+        G18G19G20G21G22G23G24G25G26G27G28G29G30G31G32J01J02
+        J03J07R01R02R03R04R05R07R08R09R11R12R13R14R15R16R17
+        R18R19R20R21R22R24  0  0  0  0  0  0  0  0  0  0  0
++        13 13 13 13 13  8  8  8  7  8  7  7  8  7  8  7  7
++         7  7  7  7  7  7  7  7  8  8  8  7  7  8  8  8  8
++         9  8  8  8  8  8  8  8 20 20  4  4  4  4  4  4  4
++         4  4  4  4  4  4  5  4  4  4  4  4  4  4  4  4  4
++         3  4  3  3  4  3  3  3  4  3  4  3  3  3  3  4  4
++         3  3  3  3  3  3  3  3  4  3  3  4  3  4  3  8  8
++         8 13  6  5  5  5  6  5  5  5  7  6  6  6  5  6  6
++         5  6  6  5  6  6  0  0  0  0  0  0  0  0  0  0  0
%c M  cc GPS ccc cccc cccc cccc cccc ccccc ccccc ccccc ccccc
%c cc cc ccc ccc cccc cccc cccc cccc ccccc ccccc ccccc ccccc
%f  1.2500000  1.025000000  0.00000000000  0.000000000000000
%f  0.0000000  0.000000000  0.00000000000  0.000000000000000
%i    0    0    0    0      0      0      0      0         0
%i    0    0    0    0      0      0      0      0         0
/* INFORMATION & ANALYSIS CENTER (IAC)            FINAL DATA
/* S/V CLOCKS ARE ALIGNED TO GNSS TIME                      
/* G:C1WC2W R:C1PC2P E:C1XC5X C:C2IC6I J:C1CC2S             
/* PCV:IGS14_2134 OL/AL:FES2004  NONE     YN ORB:CoN CLK:CoN
*  2021 01 24 23  0  0.00000000
PC01 -34353.627047  24395.764848   -311.502003   -720.622339
PC02   4428.057607  41952.036033   1147.820551    567.720489
PC03 -14805.572306  39509.756127    713.957865   -499.867362
PC04 -39623.645195  14343.736762   -410.684041   -474.212467
PC05  21914.291249  36011.235358   1440.875126   -618.974121
PC06  -6902.306180  34392.943211  24156.727351     32.666772
PC07 -17239.969382  22991.227766 -30714.258679   -259.410844
PC08 -22729.751638  34384.848122   7949.884623   -927.343760
PC09   3551.656046  40837.081274  11030.104988    780.642829
PC10  -2648.997366  26156.808025 -32748.016341    -98.218818
PC11  -2831.045368  25677.504826 -10432.672922   -909.117314
PC12 -12778.483536  11288.888083 -22043.919326    751.630797
PC13 -10549.170708  34815.865187  21190.688985    112.224297
PC14  -4710.113912  15246.436137  22915.303934    -21.693810
PC16  -5358.432161  34729.701401  23538.951095   -670.979756
PC19  -6381.639599 -17477.561324 -20778.994809    703.017377
PC20  13381.761958 -11235.826704 -21740.109431   -910.503557
PC21 -26084.070142  -2072.799095   9737.888502   -807.199702
PC22 -22993.821148 -13817.585910  -7732.504841   -855.641742
PC23  13845.384347   9278.214400 -22384.754383   -879.012026
PC24 -19640.938901  19517.441041  -3340.177593   -747.387276
PC25  -3043.621675  20457.687877 -18730.345839   -909.186495
PC26 -23336.219521   8435.886249  12720.417567    958.213772
PC27  15952.062027   -399.546551  22881.587956    471.958301
PC28  13606.211045  19306.561309  14866.031866   -117.740281
PC29  -4337.638507 -27502.650884   1846.326829    343.100459
PC30   8507.536459 -19761.406395  17760.525140    435.695655
PC32  26094.910292   1903.206370  -9686.676991   -886.247615
PC33   6334.624201  17467.829167  20820.049428   -931.299138
PC34  -8183.493785  20315.716069 -17310.365851   -755.576571
PC35 -14201.744535 -19036.377067 -14621.763511   -450.056944
PC36   3855.757361 -20501.593985  18557.885303   -769.564453
PC37  23414.953521  -7238.136534 -13356.216797   -861.186177
PC38 -20837.426613  35437.493516   9098.346571    125.902269
PC39  -1952.384347  35611.406866  22592.807013 999999.999999
PC40  -8775.195007  20779.319657 -35619.006075    124.620416
PC41  22848.949681  13907.579462   8018.723035   -933.023697
PC42 -14074.372544  10924.222638  21520.821971   -820.566423
PC43   3888.127352  27554.299593  -2271.892462   -567.075239
PC44 -16087.235716    776.271089 -22788.221947      3.696465
PC45 -13808.688870  -9131.845257  22460.762374    344.072819
PC46  19178.076407 -19880.393485   4124.582802    436.840875
PC59 -32322.366228  27054.375765    126.558781 999999.999999
PC60   7314.870674  41515.400288  -1139.945688 999999.999999
PE01 -28380.158761   1081.255993   8318.439578  -1031.773798
PE02  28426.921842  -1164.643283  -8215.215793    193.463573
PE03  23564.714208   8464.871338 -15784.257500   -391.036529
PE04 -14020.220676  10004.068522  24073.209554   -695.700479
PE05  19423.781676  22255.018334   1901.143930   -310.167966
PE07  -3991.039848 -22922.493685 -18301.194471   -492.006058
PE08  13624.554957 -10251.742972 -24198.734317   6057.098991
PE09   4317.156520  22863.683988  18288.661420   5788.063279
PE11  -5203.866355  28824.375569   4334.196806   6420.282449
PE12 -15711.644981  20426.298979 -14569.370817   5390.104438
PE13   5387.899876 -28834.479763  -3932.122882    410.861911
PE14  -6579.193883  22225.916455 -19687.422648  -1306.278766
PE15  15590.978532 -20504.358332  14594.087297    832.659834
PE18  -6921.198243 -25402.943928   6450.069615  -1427.767843
PE19 -23773.837002 -10570.215008  14110.648648    186.736477
PE21 -16347.406678 -11213.547106  21975.897383   -644.687550
PE24  -6293.546224  17482.804649 -23046.970372   -707.300970
PE25  16198.701696  11299.282351 -22047.955160   -525.017292
PE26  -8418.428801 -19699.272774 -20415.506427   2226.953291
PE27   5568.437610 -17439.666302  23265.172531     44.176871
PE30  24614.157479 -12925.790487  10182.835220   3236.154086
PE31 -24057.849774  13372.228760 -10871.218679   -477.662751
PE33 -16602.353247    144.756415 -24492.227219   -465.133420
PE36   7976.801755  20196.105108  20131.050705    449.787826
PG01  14250.881544 -22015.626662   2567.189657    774.336378
PG02 -16926.431619   4729.922943 -19259.568607   -569.615730
PG03  14283.094331 -12927.016210 -18319.795241    -64.976489
PG04   6544.444998 -16500.078517 -19736.821148   -175.271532
PG05 -26326.114225   3292.230351   2485.426227    -31.873299
PG06 -10944.662043 -10327.370903 -21816.846459     -4.274721
PG07   3668.260962 -23512.528841  11597.346866     34.022386
PG08  11822.478302  -9406.142879  21839.813534     -7.820812
PG09  -4334.248211 -23171.559866 -12276.378334   -316.194906
PG10  15848.214269  11909.838525  17908.567101    -46.559440
PG11  11635.833284 -18707.695525  14635.907106    -43.743378
PG12 -18383.146791  10219.810971 -16367.310391      8.360262
PG13 -16392.809578  -1795.062807  20710.467580     89.563297
PG14 -13450.264844 -13356.150495  18600.181083     90.142831
PG15 -10836.152342  11567.443107  20932.242941   -174.064336
PG16  26747.719528    749.906215   1520.051978   -269.975823
PG17 -14228.774792 -22118.087065  -3296.628409    384.442611
PG18  -2302.133326  22707.956368  13531.890979    343.500584
PG19 -16749.221978 -17342.646566 -11520.488315    -47.524067
PG20   3376.837404  15348.008487  21358.478386    525.012104
PG21  16880.022516 -17007.954003  11721.702719     89.707208
PG22  21278.096863 -10878.472679 -11214.463031   -692.224544
PG23   4132.895990  14841.660951  21613.671501    117.188390
PG24 -15324.831070  20014.881087   7463.978035      3.230465
PG25  -3752.981114  15187.836387 -21686.368104     66.583306
PG26  24438.417776   5262.588279  -9403.383273     34.871828
PG27  17864.478406   4495.665399  19114.104251    -62.748311
PG28 -15857.119354 -12939.877638  17389.694271    625.140264
PG29   2258.049089  23100.080735 -12913.968047   -282.109299
PG30  -5631.948726 -17817.867697  18838.995378   -374.179788
PG31  13258.466077   7742.399412 -21747.034715    -95.926923
PG32  16307.599073  20621.447587  -4269.593586     15.939964
PJ01 -27568.095758  21127.565845  28954.430877   -337.666520
PJ02 -36215.149900  18803.177893  -6132.862510      1.058818
PJ03 -18874.955451  28012.741330 -20520.359416     -0.251771
PJ07 -25351.293467  33688.440273      4.363817      0.067564
PR01  -9287.627330   7298.211348  22607.799845     73.970417
PR02  11326.250687  15789.056972  16597.923610    464.244193
PR03  21903.525466  13117.040600    619.193958     29.742445
PR04  19921.853201   3187.807813 -15590.530071     71.346937
PR05   6862.008604  -8489.558268 -23047.737165     65.330210
PR07 -22032.704298 -12805.081043    139.606156    -42.245930
PR08 -19926.612954  -3025.795600  15671.330136    -57.024612
PR09    750.747862 -12958.963047  21960.040853     20.400161
PR11 -22578.202296   9505.358734   7129.578650      4.195553
PR12 -16918.260298  15699.851146 -10808.467405    199.396417
PR13  -1356.221257  12959.915025 -21947.144028    -49.764445
PR14  15409.946847   2333.097160 -20183.151573     60.221123
PR15  22761.108000  -9352.162935  -6717.936091    105.737967
PR16  16020.407623 -16254.348873  11506.364274    -10.551228
PR17   8690.801130  14163.815423  19354.305286    394.147207
PR18  10388.948525  -3882.802120  22986.781579     64.307887
PR19   7367.680380 -19334.411396  14926.893386   -129.270976
PR20   -917.687185 -25107.128639  -4261.960392   -431.865888
PR21  -8853.447665 -13175.818447 -19967.941073   -182.769311
PR22 -10275.495977   5262.206328 -22764.738294    -94.263312
PR24   1690.608316  24956.425276   4995.792947     29.010688
EOF
